*******************************************************************************
Ephemeris / PORT_LOGIN Mon Oct  5 17:18:00 2015 Pasadena, USA    / Horizons    
*******************************************************************************
Target body name: Earth (399)                     {source: DE-0431LE-0431}
Center body name: Mars (499)                      {source: MAR097}
Center-site name: BODY CENTER
*******************************************************************************
Start time      : A.D. 1900-Jan-04 00:00:00.0000 CT 
Stop  time      : A.D. 2099-Dec-31 00:00:00.0000 CT 
Step-size       : 14400 minutes
*******************************************************************************
Center geodetic : 0.00000000,0.00000000,0.0000000 {E-lon(deg),Lat(deg),Alt(km)}
Center cylindric: 0.00000000,0.00000000,0.0000000 {E-lon(deg),Dxy(km),Dz(km)}
Center radii    : 3396.2 x 3396.2 x 3376.2 km     {Equator, meridian, pole}    
Output units    : AU-D                                                         
Output format   : 03
Reference frame : ICRF/J2000.0                                                 
Output type     : GEOMETRIC cartesian states
Coordinate systm: Ecliptic and Mean Equinox of Reference Epoch                 
*******************************************************************************
JDCT 
   X     Y     Z
   VX    VY    VZ
   LT    RG    RR
*******************************************************************************
$$SOE
2472993.500000000 = A.D. 2058-Sep-22 00:00:00.0000 (CT)
   8.811939772290078E-01 -1.580323523900850E+00 -2.958574366464495E-02
   1.360487258676225E-02  1.484679708474002E-02 -3.779826109425329E-04
   1.045161482155401E-02  1.809641009130614E+00 -6.334420997700707E-03
2473003.500000000 = A.D. 2058-Oct-02 00:00:00.0000 (CT)
   1.002858682581171E+00 -1.426317157549787E+00 -3.324848264876047E-02
   1.071835625666439E-02  1.587054117036518E-02 -3.545621107232347E-04
   1.007196686023219E-02  1.743907002322025E+00 -6.809789666478328E-03
2473013.500000000 = A.D. 2058-Oct-12 00:00:00.0000 (CT)
   1.095393737695735E+00 -1.264548351768659E+00 -3.666510042245438E-02
   7.783385877566435E-03  1.639735852211418E-02 -3.279504341747175E-04
   9.664833041079910E-03  1.673413966755642E+00 -7.288905465626516E-03
2473023.500000000 = A.D. 2058-Oct-22 00:00:00.0000 (CT)
   1.158616212281623E+00 -1.100159554046835E+00 -3.979831983519951E-02
   4.877636237830165E-03  1.639031603131481E-02 -2.986964717260926E-04
   9.230583797310803E-03  1.598226040954174E+00 -7.739059693856457E-03
2473033.500000000 = A.D. 2058-Nov-01 00:00:00.0000 (CT)
   1.193499465276157E+00 -9.384117616145701E-01 -4.264232283300237E-02
   2.131718451916072E-03  1.588455628918987E-02 -2.698713841610394E-04
   8.772090220941416E-03  1.518840339090198E+00 -8.131560215232795E-03
2473043.500000000 = A.D. 2058-Nov-11 00:00:00.0000 (CT)
   1.201923479486279E+00 -7.839298710314191E-01 -4.518269751198865E-02
  -4.077917660427767E-04  1.493754396256694E-02 -2.376580467124965E-04
   8.291857520299267E-03  1.435690624539354E+00 -8.490257699303668E-03
2473053.500000000 = A.D. 2058-Nov-21 00:00:00.0000 (CT)
   1.186327693561287E+00 -6.411071286460961E-01 -4.739343365235732E-02
  -2.650869198970034E-03  1.356068697358203E-02 -2.048269003491177E-04
   7.792965513762897E-03  1.349310151323499E+00 -8.766661370726285E-03
2473063.500000000 = A.D. 2058-Dec-01 00:00:00.0000 (CT)
   1.150223866816363E+00 -5.137959078991577E-01 -4.928152027724131E-02
  -4.504894426148300E-03  1.185692751616358E-02 -1.723222333148451E-04
   7.281345665654654E-03  1.260725920653947E+00 -8.935475537004028E-03
2473073.500000000 = A.D. 2058-Dec-11 00:00:00.0000 (CT)
   1.097547483833920E+00 -4.048180290424803E-01 -5.082913314564431E-02
  -5.959519651161843E-03  9.898784389915649E-03 -1.369793890874039E-04
   6.762714489994230E-03  1.170927716250813E+00 -9.002348731464788E-03
2473083.500000000 = A.D. 2058-Dec-21 00:00:00.0000 (CT)
   1.032600853659926E+00 -3.164811597187558E-01 -5.202570144232335E-02
  -6.944837418487696E-03  7.747435030202999E-03 -1.027965210945153E-04
   6.244859207439530E-03  1.081263853574465E+00 -8.894974318390101E-03
2473093.500000000 = A.D. 2058-Dec-31 00:00:00.0000 (CT)
   9.602850742093721E-01 -2.500285848793939E-01 -5.288322657590448E-02
  -7.442143697454159E-03  5.541699690281036E-03 -6.818895492017046E-05
   5.739186800637915E-03  9.937093904453002E-01 -8.582546239599581E-03
2473103.500000000 = A.D. 2059-Jan-10 00:00:00.0000 (CT)
   8.852739138599961E-01 -2.056156122454305E-01 -5.338363167629764E-02
  -7.482181919821742E-03  3.347274131962326E-03 -3.200912282821034E-05
   5.258061498192904E-03  9.104051266831759E-01 -8.029747762712780E-03
2473113.500000000 = A.D. 2059-Jan-20 00:00:00.0000 (CT)
   8.122573835106298E-01 -1.827626460555762E-01 -5.353259147630400E-02
  -7.041788396066164E-03  1.253490754851025E-03  1.912706180008552E-06
   4.818423184820128E-03  8.342841124047244E-01 -7.130590417164287E-03
2473123.500000000 = A.D. 2059-Jan-30 00:00:00.0000 (CT)
   7.458168355674479E-01 -1.797791804661085E-01 -5.333980600290751E-02
  -6.184995721890228E-03 -6.162435034906381E-04  3.700642905937386E-05
   4.441551743819144E-03  7.690308451871973E-01 -5.856800321089556E-03
2473133.500000000 = A.D. 2059-Feb-09 00:00:00.0000 (CT)
   6.897371572456911E-01 -1.942297224203853E-01 -5.279276300888342E-02
  -4.972862032121646E-03 -2.226472734080745E-03  7.197013836140529E-05
   4.149739489849157E-03  7.185051196637219E-01 -4.177172800322533E-03
2473143.500000000 = A.D. 2059-Feb-19 00:00:00.0000 (CT)
   6.474706176889631E-01 -2.231642111166766E-01 -5.191047416883364E-02
  -3.434589358799613E-03 -3.492487657645026E-03  1.045089889626963E-04
   3.966713964050908E-03  6.868152322293741E-01 -2.110935348889595E-03
2473153.500000000 = A.D. 2059-Mar-01 00:00:00.0000 (CT)
   6.217142975351159E-01 -2.627164829527697E-01 -5.069645169893947E-02
  -1.690355306949311E-03 -4.351894579362233E-03  1.383782349627531E-04
   3.909128974397325E-03  6.768447003482546E-01  1.261457617642838E-04
2473163.500000000 = A.D. 2059-Mar-11 00:00:00.0000 (CT)
   6.141257476286414E-01 -3.088755202911360E-01 -4.914948024121689E-02
   1.932882996644388E-04 -4.810564804788751E-03  1.703661573959870E-04
   3.980376416374734E-03  6.891808125184127E-01  2.316076697772681E-03
2473173.500000000 = A.D. 2059-Mar-21 00:00:00.0000 (CT)
   6.258415532689073E-01 -3.573963246393459E-01 -4.729600551182172E-02
   2.149001439055263E-03 -4.814259229350137E-03  2.005987757108449E-04
   4.171374641275453E-03  7.222511300102795E-01  4.231278159690898E-03
2473183.500000000 = A.D. 2059-Mar-31 00:00:00.0000 (CT)
   6.569001742995451E-01 -4.037003074995021E-01 -4.513438949836156E-02
   4.047694436304500E-03 -4.378786661153499E-03  2.314884164809809E-04
   4.460737914453719E-03  7.723528276541460E-01  5.717853882093692E-03
2473193.500000000 = A.D. 2059-Apr-10 00:00:00.0000 (CT)
   7.064505159221173E-01 -4.436497791611635E-01 -4.267811153231980E-02
   5.842035049481558E-03 -3.543039807577963E-03  2.591014943906158E-04
   4.824265533353583E-03  8.352956836955044E-01  6.809468373273880E-03
2473203.500000000 = A.D. 2059-Apr-20 00:00:00.0000 (CT)
   7.731184228978032E-01 -4.731611131692565E-01 -3.995410336933086E-02
   7.448091582313412E-03 -2.294896425661028E-03  2.859713421594389E-04
   5.240116881679833E-03  9.072981126485404E-01  7.530806844268107E-03
2473213.500000000 = A.D. 2059-Apr-30 00:00:00.0000 (CT)
   8.544585808741365E-01 -4.884479255471387E-01 -3.696090312472380E-02
   8.770966166342620E-03 -7.142815999501157E-04  3.121181194435880E-04
   5.688363539293544E-03  9.849096155285223E-01  7.951775856469214E-03
2473223.500000000 = A.D. 2059-May-10 00:00:00.0000 (CT)
   9.475493581792599E-01 -4.865214548210275E-01 -3.372656838049407E-02
   9.793575515187992E-03  1.146888719443967E-03  3.343001898402757E-04
   6.154899171215479E-03  1.065687756147090E+00  8.173721971504245E-03
2473233.500000000 = A.D. 2059-May-20 00:00:00.0000 (CT)
   1.049050172810728E+00 -4.646593980285540E-01 -3.027330005333619E-02
   1.043600449093202E-02  3.257228784814216E-03  3.563982978358648E-04
   6.628853760044060E-03  1.147750449334086E+00  8.210496455158282E-03
2473243.500000000 = A.D. 2059-May-30 00:00:00.0000 (CT)
   1.154872116577155E+00 -4.209317835488555E-01 -2.660698749704430E-02
   1.066096706022356E-02  5.504119118317228E-03  3.760441803595922E-04
   7.100884356660671E-03  1.229480013596271E+00  8.121473633596452E-03
2473253.500000000 = A.D. 2059-Jun-09 00:00:00.0000 (CT)
   1.260927521260449E+00 -3.542770081594930E-01 -2.276661520587526E-02
   1.047748526638992E-02  7.840518973987975E-03  3.918848342300415E-04
   7.565639640080964E-03  1.309949896427490E+00  7.958099816393106E-03
2473263.500000000 = A.D. 2059-Jun-19 00:00:00.0000 (CT)
   1.362851469028235E+00 -2.640495756012274E-01 -1.876853894338838E-02
   9.828810940231534E-03  1.019675076495829E-02  4.074439254944193E-04
   8.018280382703651E-03  1.388322211542291E+00  7.703625642949622E-03
2473273.500000000 = A.D. 2059-Jun-29 00:00:00.0000 (CT)
   1.456028945033851E+00 -1.506630645040090E-01 -1.463198370663868E-02
   8.738429956688080E-03  1.246039929256876E-02  4.189026701521576E-04
   8.454644249818963E-03  1.463876273026283E+00  7.404967094160829E-03
2473283.500000000 = A.D. 2059-Jul-09 00:00:00.0000 (CT)
   1.536242452698815E+00 -1.524798878272628E-02 -1.040076008055951E-02
   7.230492676633248E-03  1.459696698604521E-02  4.273486893797506E-04
   8.873236813167863E-03  1.536353328647496E+00  7.082205935854981E-03
2473293.500000000 = A.D. 2059-Jul-19 00:00:00.0000 (CT)
   1.599178356570830E+00  1.405297901677945E-01 -6.088887352076491E-03
   5.289129277681052E-03  1.651141065675283E-02  4.344016008638388E-04
   9.271743625642726E-03  1.605352644311639E+00  6.712519617861173E-03
